CUTE-1.7+APD II (CO-65) 
1 32785U 08021C   26065.86096254  .00009307  00000+0  60286-3 0  9998
2 32785  97.8209  45.2818 0010038  28.8695 331.3086 15.08325396969763
SEEDS II (CO-66)        
1 32791U 08021J   26065.45257361  .00023871  00000+0  85099-3 0  9999
2 32791  97.7520  58.7481 0001969   9.7725 350.3551 15.28908488971576
YUBILEINY (RS30)        
1 32953U 08025A   26065.89110516  .00000039  00000+0  20613-3 0  9993
2 32953  82.4989  59.0637 0019426 171.3440 188.7979 12.43176073806980
KKS-1 (KISEKI)          
1 33499U 09002H   26065.83314787  .00002502  00000+0  31604-3 0  9994
2 33499  98.1188 346.6852 0006424 262.1530  97.8953 14.82817079921026
SWISSCUBE               
1 35932U 09051B   26065.19296202  .00001759  00000+0  35869-3 0  9992
2 35932  98.4101 331.2738 0006841 163.0927 197.0503 14.62248300874106
BEESAT-1                
1 35933U 09051C   26065.28688956  .00001477  00000+0  30751-3 0  9996
2 35933  98.4031 331.2163 0005077 173.8074 186.3190 14.61523938874153
ITUPSAT1                
1 35935U 09051E   26065.25669722  .00001353  00000+0  29045-3 0  9992
2 35935  98.4119 330.4839 0007029 189.0317 171.0757 14.60259585873715
XIWANG-1 (HOPE-1)       
1 36122U 09072B   26065.87301457 -.00000369  00000+0 -84969-3 0  9994
2 36122 100.3916  21.3943 0008051 105.5654 254.6348 13.16434063779543
O/OREOS (USA 219)       
1 37224U 10062C   26065.38214941  .00003272  00000+0  31757-3 0  9997
2 37224  71.9717 313.1295 0016904 262.2775  97.6476 14.93259306101291
JUGNU                   
1 37839U 11058B   26065.60701263  .00000560  00000+0  15260-3 0  9996
2 37839  19.9594 211.6256 0018726  23.6364  62.6809 14.13739270744496
SRMSAT                  
1 37841U 11058D   26065.86243664  .00000507  00000+0  13114-3 0  9990
2 37841  19.9729 318.8168 0011841 158.0266 271.4446 14.11546449743348
STRAND-1                
1 39090U 13009E   26065.43123029  .00000517  00000+0  18843-3 0  9996
2 39090  98.3884 248.2040 0008826 171.2086 188.9258 14.37091567682305
ZACUBE-1 (TSHEPISOSAT)  
1 39417U 13066B   26065.39536104  .00005720  00000+0  45310-3 0  9999
2 39417  97.8184  27.2032 0042035 231.0505 128.6969 15.00283693665318
GOMX-1                  
1 39430U 13066Q   26065.82800329  .00002142  00000+0  32774-3 0  9990
2 39430  97.6567 272.7117 0130434  46.6201 314.5781 14.69084514654884
CUBEBUG-2 (LO-74)       
1 39440U 13066AA  26065.54755604  .00007643  00000+0  71771-3 0  9996
2 39440  97.8820  14.2158 0059087   9.5494 350.6833 14.92909829661674
FUNCUBE-1 (AO-73)       
1 39444U 13066AE  26065.85392794  .00011997  00000+0  77451-3 0  9999
2 39444  97.8191  35.3439 0036957 188.9589 171.0983 15.07846155664238
