[{"OBJECT_NAME":"CUTE-1.7+APD II (CO-65)","OBJECT_ID":"2008-021C","EPOCH":"2026-03-06T20:39:47.163456","MEAN_MOTION":15.08325396,"ECCENTRICITY":0.0010038,"INCLINATION":97.8209,"RA_OF_ASC_NODE":45.2818,"ARG_OF_PERICENTER":28.8695,"MEAN_ANOMALY":331.3086,"EPHEMERIS_TYPE":0,"CLASSIFICATION_TYPE":"U","NORAD_CAT_ID":32785,"ELEMENT_SET_NO":999,"REV_AT_EPOCH":96976,"BSTAR":0.00060286,"MEAN_MOTION_DOT":9.307e-5,"MEAN_MOTION_DDOT":0},{"OBJECT_NAME":"SEEDS II (CO-66)","OBJECT_ID":"2008-021J","EPOCH":"2026-03-06T10:51:42.359904","MEAN_MOTION":15.28908488,"ECCENTRICITY":0.00019698,"INCLINATION":97.752,"RA_OF_ASC_NODE":58.7481,"ARG_OF_PERICENTER":9.7725,"MEAN_ANOMALY":350.3551,"EPHEMERIS_TYPE":0,"CLASSIFICATION_TYPE":"U","NORAD_CAT_ID":32791,"ELEMENT_SET_NO":999,"REV_AT_EPOCH":97157,"BSTAR":0.00085099035,"MEAN_MOTION_DOT":0.00023871,"MEAN_MOTION_DDOT":0},{"OBJECT_NAME":"YUBILEINY (RS30)","OBJECT_ID":"2008-025A","EPOCH":"2026-03-06T21:23:11.485824","MEAN_MOTION":12.43176073,"ECCENTRICITY":0.0019426,"INCLINATION":82.4989,"RA_OF_ASC_NODE":59.0637,"ARG_OF_PERICENTER":171.344,"MEAN_ANOMALY":188.7979,"EPHEMERIS_TYPE":0,"CLASSIFICATION_TYPE":"U","NORAD_CAT_ID":32953,"ELEMENT_SET_NO":999,"REV_AT_EPOCH":80698,"BSTAR":0.00020613,"MEAN_MOTION_DOT":3.9e-7,"MEAN_MOTION_DDOT":0},{"OBJECT_NAME":"KKS-1 (KISEKI)","OBJECT_ID":"2009-002H","EPOCH":"2026-03-06T19:59:43.975968","MEAN_MOTION":14.82817079,"ECCENTRICITY":0.0006424,"INCLINATION":98.1188,"RA_OF_ASC_NODE":346.6852,"ARG_OF_PERICENTER":262.153,"MEAN_ANOMALY":97.8953,"EPHEMERIS_TYPE":0,"CLASSIFICATION_TYPE":"U","NORAD_CAT_ID":33499,"ELEMENT_SET_NO":999,"REV_AT_EPOCH":92102,"BSTAR":0.00031604,"MEAN_MOTION_DOT":2.502e-5,"MEAN_MOTION_DDOT":0},{"OBJECT_NAME":"SWISSCUBE","OBJECT_ID":"2009-051B","EPOCH":"2026-03-06T04:37:51.918528","MEAN_MOTION":14.622483,"ECCENTRICITY":0.00068415,"INCLINATION":98.4101,"RA_OF_ASC_NODE":331.2738,"ARG_OF_PERICENTER":163.0927,"MEAN_ANOMALY":197.0503,"EPHEMERIS_TYPE":0,"CLASSIFICATION_TYPE":"U","NORAD_CAT_ID":35932,"ELEMENT_SET_NO":999,"REV_AT_EPOCH":87410,"BSTAR":0.00035868977,"MEAN_MOTION_DOT":1.759e-5,"MEAN_MOTION_DDOT":0},{"OBJECT_NAME":"BEESAT-1","OBJECT_ID":"2009-051C","EPOCH":"2026-03-06T06:53:07.257984","MEAN_MOTION":14.61523938,"ECCENTRICITY":0.00050778,"INCLINATION":98.4031,"RA_OF_ASC_NODE":331.2163,"ARG_OF_PERICENTER":173.8074,"MEAN_ANOMALY":186.319,"EPHEMERIS_TYPE":0,"CLASSIFICATION_TYPE":"U","NORAD_CAT_ID":35933,"ELEMENT_SET_NO":999,"REV_AT_EPOCH":87415,"BSTAR":0.00030751292,"MEAN_MOTION_DOT":1.477e-5,"MEAN_MOTION_DDOT":0},{"OBJECT_NAME":"ITUPSAT1","OBJECT_ID":"2009-051E","EPOCH":"2026-03-06T06:09:38.639808","MEAN_MOTION":14.60259585,"ECCENTRICITY":0.00070299,"INCLINATION":98.4119,"RA_OF_ASC_NODE":330.4839,"ARG_OF_PERICENTER":189.0317,"MEAN_ANOMALY":171.0757,"EPHEMERIS_TYPE":0,"CLASSIFICATION_TYPE":"U","NORAD_CAT_ID":35935,"ELEMENT_SET_NO":999,"REV_AT_EPOCH":87371,"BSTAR":0.00029045006,"MEAN_MOTION_DOT":1.353e-5,"MEAN_MOTION_DDOT":0},{"OBJECT_NAME":"XIWANG-1 (HOPE-1)","OBJECT_ID":"2009-072B","EPOCH":"2026-03-06T20:57:08.458848","MEAN_MOTION":13.16434063,"ECCENTRICITY":0.0008051,"INCLINATION":100.3916,"RA_OF_ASC_NODE":21.3943,"ARG_OF_PERICENTER":105.5654,"MEAN_ANOMALY":254.6348,"EPHEMERIS_TYPE":0,"CLASSIFICATION_TYPE":"U","NORAD_CAT_ID":36122,"ELEMENT_SET_NO":999,"REV_AT_EPOCH":77954,"BSTAR":-0.00084969,"MEAN_MOTION_DOT":-3.69e-6,"MEAN_MOTION_DDOT":0},{"OBJECT_NAME":"O/OREOS (USA 219)","OBJECT_ID":"2010-062C","EPOCH":"2026-03-06T09:10:17.709024","MEAN_MOTION":14.93259306,"ECCENTRICITY":0.00169046,"INCLINATION":71.9717,"RA_OF_ASC_NODE":313.1295,"ARG_OF_PERICENTER":262.2775,"MEAN_ANOMALY":97.6476,"EPHEMERIS_TYPE":0,"CLASSIFICATION_TYPE":"U","NORAD_CAT_ID":37224,"ELEMENT_SET_NO":999,"REV_AT_EPOCH":10129,"BSTAR":0.00031756531,"MEAN_MOTION_DOT":3.272e-5,"MEAN_MOTION_DDOT":0},{"OBJECT_NAME":"JUGNU","OBJECT_ID":"2011-058B","EPOCH":"2026-03-06T14:34:05.891232","MEAN_MOTION":14.1373927,"ECCENTRICITY":0.0018726,"INCLINATION":19.9594,"RA_OF_ASC_NODE":211.6256,"ARG_OF_PERICENTER":23.6364,"MEAN_ANOMALY":62.6809,"EPHEMERIS_TYPE":0,"CLASSIFICATION_TYPE":"U","NORAD_CAT_ID":37839,"ELEMENT_SET_NO":999,"REV_AT_EPOCH":74449,"BSTAR":0.00015259622,"MEAN_MOTION_DOT":5.6e-6,"MEAN_MOTION_DDOT":0},{"OBJECT_NAME":"SRMSAT","OBJECT_ID":"2011-058D","EPOCH":"2026-03-06T20:41:54.525696","MEAN_MOTION":14.11546449,"ECCENTRICITY":0.0011841,"INCLINATION":19.9729,"RA_OF_ASC_NODE":318.8168,"ARG_OF_PERICENTER":158.0266,"MEAN_ANOMALY":271.4446,"EPHEMERIS_TYPE":0,"CLASSIFICATION_TYPE":"U","NORAD_CAT_ID":37841,"ELEMENT_SET_NO":999,"REV_AT_EPOCH":74334,"BSTAR":0.00013114,"MEAN_MOTION_DOT":5.07e-6,"MEAN_MOTION_DDOT":0},{"OBJECT_NAME":"STRAND-1","OBJECT_ID":"2013-009E","EPOCH":"2026-03-06T10:20:58.297056","MEAN_MOTION":14.37091567,"ECCENTRICITY":0.00088268,"INCLINATION":98.3884,"RA_OF_ASC_NODE":248.204,"ARG_OF_PERICENTER":171.2086,"MEAN_ANOMALY":188.9258,"EPHEMERIS_TYPE":0,"CLASSIFICATION_TYPE":"U","NORAD_CAT_ID":39090,"ELEMENT_SET_NO":999,"REV_AT_EPOCH":68230,"BSTAR":0.00018842958,"MEAN_MOTION_DOT":5.17e-6,"MEAN_MOTION_DDOT":0},{"OBJECT_NAME":"ZACUBE-1 (TSHEPISOSAT)","OBJECT_ID":"2013-066B","EPOCH":"2026-03-06T09:29:19.193856","MEAN_MOTION":15.00283693,"ECCENTRICITY":0.00420357,"INCLINATION":97.8184,"RA_OF_ASC_NODE":27.2032,"ARG_OF_PERICENTER":231.0505,"MEAN_ANOMALY":128.6969,"EPHEMERIS_TYPE":0,"CLASSIFICATION_TYPE":"U","NORAD_CAT_ID":39417,"ELEMENT_SET_NO":999,"REV_AT_EPOCH":66531,"BSTAR":0.00045309734,"MEAN_MOTION_DOT":5.72e-5,"MEAN_MOTION_DDOT":0},{"OBJECT_NAME":"GOMX-1","OBJECT_ID":"2013-066Q","EPOCH":"2026-03-06T19:52:19.484256","MEAN_MOTION":14.69084514,"ECCENTRICITY":0.0130434,"INCLINATION":97.6567,"RA_OF_ASC_NODE":272.7117,"ARG_OF_PERICENTER":46.6201,"MEAN_ANOMALY":314.5781,"EPHEMERIS_TYPE":0,"CLASSIFICATION_TYPE":"U","NORAD_CAT_ID":39430,"ELEMENT_SET_NO":999,"REV_AT_EPOCH":65488,"BSTAR":0.00032774,"MEAN_MOTION_DOT":2.142e-5,"MEAN_MOTION_DDOT":0},{"OBJECT_NAME":"CUBEBUG-2 (LO-74)","OBJECT_ID":"2013-066AA","EPOCH":"2026-03-06T13:08:28.841856","MEAN_MOTION":14.92909829,"ECCENTRICITY":0.00590879,"INCLINATION":97.882,"RA_OF_ASC_NODE":14.2158,"ARG_OF_PERICENTER":9.5494,"MEAN_ANOMALY":350.6833,"EPHEMERIS_TYPE":0,"CLASSIFICATION_TYPE":"U","NORAD_CAT_ID":39440,"ELEMENT_SET_NO":999,"REV_AT_EPOCH":66167,"BSTAR":0.00071771382,"MEAN_MOTION_DOT":7.643e-5,"MEAN_MOTION_DDOT":0},{"OBJECT_NAME":"FUNCUBE-1 (AO-73)","OBJECT_ID":"2013-066AE","EPOCH":"2026-03-06T20:29:39.374016","MEAN_MOTION":15.07846155,"ECCENTRICITY":0.0036957,"INCLINATION":97.8191,"RA_OF_ASC_NODE":35.3439,"ARG_OF_PERICENTER":188.9589,"MEAN_ANOMALY":171.0983,"EPHEMERIS_TYPE":0,"CLASSIFICATION_TYPE":"U","NORAD_CAT_ID":39444,"ELEMENT_SET_NO":999,"REV_AT_EPOCH":66423,"BSTAR":0.00077451,"MEAN_MOTION_DOT":0.00011997,"MEAN_MOTION_DDOT":0}]
